DMSP 5D-3 F16 (USA 172) 
1 28054U 03048A   26140.30064969 -.00000044  00000+0  81863-6 0  9994
2 28054  98.9906 163.9425 0006283 218.7706 234.2486 14.14479723165544
METEOSAT-9 (MSG-2)      
1 28912U 05049B   26139.86641920  .00000119  00000+0  00000+0 0  9996
2 28912   9.3000  54.4428 0001501 307.0308 233.6158  1.00271430  6711
DMSP 5D-3 F17 (USA 191) 
1 29522U 06050A   26140.30937508  .00000009  00000+0  26919-4 0  9998
2 29522  98.7384 147.4498 0010978 131.0155 229.1969 14.14987846  8489
FENGYUN 3A              
1 32958U 08026A   26140.27673072  .00000041  00000+0  39831-4 0  9992
2 32958  98.6875  81.6341 0008160 201.8131 158.2699 14.19564578931447
GOES 14                 
1 35491U 09033A   26140.19655666 -.00000169  00000+0  00000+0 0  9999
2 35491   1.6198  83.3511 0001616 337.4970  45.3794  1.00117062  6317
DMSP 5D-3 F18 (USA 210) 
1 35951U 09057A   26140.27883408  .00000210  00000+0  13203-3 0  9991
2 35951  98.9028 121.1111 0010603 336.5560  23.5128 14.14879691855646
EWS-G2 (GOES 15)        
1 36411U 10008A   26140.17783657  .00000017  00000+0  00000+0 0  9997
2 36411   1.2036  83.3130 0004663  32.3023 249.6263  1.00273621 59355
COMS 1                  
1 36744U 10032A   26139.73655804 -.00000347  00000+0  00000+0 0  9992
2 36744   4.7361  75.7224 0000796 336.5397 218.4491  1.00270635 50808
FENGYUN 3B              
1 37214U 10059A   26140.30506334 -.00000093  00000+0 -24635-4 0  9996
2 37214  98.9633 186.1982 0020909 265.7666 185.5694 14.14834121803480
SUOMI NPP               
1 37849U 11061A   26140.28702829  .00000058  00000+0  48334-4 0  9999
2 37849  98.7945  81.3557 0002717  61.6609 298.4841 14.19510878754487
METEOSAT-10 (MSG-3)     
1 38552U 12035B   26140.09403142 -.00000011  00000+0  00000+0 0  9991
2 38552   4.6072  61.1421 0001771 318.1259 252.3888  1.00271756 50576
METOP-B                 
1 38771U 12049A   26140.24418801  .00000061  00000+0  47811-4 0  9994
2 38771  98.6522 192.2982 0003433  78.4368 281.7195 14.21424146709291
INSAT-3D                
1 39216U 13038B   26140.26221975 -.00000343  00000+0  00000+0 0  9992
2 39216   1.8556  82.8705 0001028 302.5023  76.4674  1.00270739 46805
FENGYUN 3C              
1 39260U 13052A   26140.26904139  .00000041  00000+0  41894-4 0  9992
2 39260  98.4966 115.4289 0015836 102.5893 257.7054 14.15747742654619
METEOR-M 2              
1 40069U 14037A   26140.27105623  .00000465  00000+0  23202-3 0  9999
2 40069  98.5104 117.0016 0006829 111.9790 248.2114 14.21454244615350
HIMAWARI-8              
1 40267U 14060A   26140.26447309 -.00000280  00000+0  00000+0 0  9997
2 40267   0.0295  64.0491 0000687  12.5739  37.1718  1.00271756 42483
FENGYUN 2G              
1 40367U 14090A   26139.82853536 -.00000303  00000+0  00000+0 0  9990
2 40367   5.5687  73.1459 0003166 141.7213  60.3751  1.00262162 41712
METEOSAT-11 (MSG-4)     
1 40732U 15034A   26140.23847297  .00000057  00000+0  00000+0 0  9994
2 40732   3.1324  71.2592 0001734 357.5971 264.1386  1.00271551  6939
ELEKTRO-L 2             
1 41105U 15074A   26140.16240983 -.00000122  00000+0  00000+0 0  9998
2 41105   6.6248  70.8567 0001521 255.9326 314.9986  1.00271606 38221
INSAT-3DR               
1 41752U 16054A   26140.10867816 -.00000081  00000+0  00000+0 0  9993
2 41752   0.1026  87.5912 0011047 190.3690  72.9373  1.00271612 35530
HIMAWARI-9              
1 41836U 16064A   26140.26447309 -.00000279  00000+0  00000+0 0  9994
2 41836   0.0320 174.9923 0000858 267.7438  31.1630  1.00271013 34930
GOES 16                 
1 41866U 16071A   26140.19142014 -.00000095  00000+0  00000+0 0  9998
2 41866   0.2724  85.6255 0000927 256.0838 220.3750  1.00271890 34827
FENGYUN 4A              
1 41882U 16077A   26140.26109308 -.00000361  00000+0  00000+0 0  9995
2 41882   2.2529  80.5544 0008574 146.2784 228.7719  1.00266533 34657
CYGFM05                 
1 41884U 16078A   26140.20635324  .00017290  00000+0  24637-3 0  9998
2 41884  34.9574  85.6866 0008981 251.2702 108.7047 15.55327650524392
CYGFM04                 
1 41885U 16078B   26140.13281448  .00021544  00000+0  25916-3 0  9993
2 41885  34.9336  55.2223 0008401 287.9547  72.0262 15.59804117524618
CYGFM02                 
1 41886U 16078C   26140.11963727  .00024702  00000+0  26939-3 0  9994
2 41886  34.9418  50.6072 0009541 290.0669  69.9029 15.62308151524771
CYGFM01                 
1 41887U 16078D   26140.20687800  .00017848  00000+0  24840-3 0  9992
2 41887  34.9404  86.9613 0008641 246.2405 113.7413 15.55960182524349
CYGFM08                 
1 41888U 16078E   26140.21253738  .00020841  00000+0  26404-3 0  9998
2 41888  34.9441  67.2114 0010280 272.8555  87.0993 15.58426187524602
CYGFM07                 
1 41890U 16078G   26140.17345137  .00021046  00000+0  26586-3 0  9990
2 41890  34.9458  55.8373 0008789 287.5281  72.4483 15.58520834524621
CYGFM03                 
1 41891U 16078H   26140.14435994  .00020892  00000+0  26399-3 0  9999
2 41891  34.9412  57.9772 0008140 277.2402  82.7397 15.58519606524599
FENGYUN 3D              
1 43010U 17072A   26140.30975367  .00000136  00000+0  86257-4 0  9999
2 43010  99.0118 114.2317 0002426 108.7556 251.3883 14.19733595441032
